[{"OBJECT_NAME":"WNISAT-1","OBJECT_ID":"2013-066H","EPOCH":"2026-03-09T23:22:50.142144","MEAN_MOTION":14.57873953,"ECCENTRICITY":0.01635812,"INCLINATION":97.7044,"RA_OF_ASC_NODE":225.2618,"ARG_OF_PERICENTER":183.9709,"MEAN_ANOMALY":176.0205,"EPHEMERIS_TYPE":0,"CLASSIFICATION_TYPE":"U","NORAD_CAT_ID":39423,"ELEMENT_SET_NO":999,"REV_AT_EPOCH":65227,"BSTAR":0.00040775548,"MEAN_MOTION_DOT":2.198e-5,"MEAN_MOTION_DDOT":0},{"OBJECT_NAME":"METEOR 2-5 DEB","OBJECT_ID":"1979-095CA","EPOCH":"2026-02-26T17:42:35.205408","MEAN_MOTION":14.45891596,"ECCENTRICITY":0.00046998,"INCLINATION":81.187,"RA_OF_ASC_NODE":214.282,"ARG_OF_PERICENTER":301.4167,"MEAN_ANOMALY":58.6563,"EPHEMERIS_TYPE":0,"CLASSIFICATION_TYPE":"U","NORAD_CAT_ID":38280,"ELEMENT_SET_NO":999,"REV_AT_EPOCH":79153,"BSTAR":0.0026291792,"MEAN_MOTION_DOT":9.363e-5,"MEAN_MOTION_DDOT":0}]
